{
  "type": "FeatureCollection",
  "features": [
    {
      "type": "Feature",
      "properties": {
        "norad_id": 32099,
        "name": "FENGYUN 1C DEB",
        "group": "fengyun-1c-debris",
        "lat": 1.3843919380706502,
        "lon": -34.277193731584404,
        "alt_km": 1000.0622843917163,
        "timestamp": "2025-12-20T22:39:10.910399+00:00",
        "meta_object_name": "FENGYUN 1C DEB",
        "meta_object_id": "1999-025CQR",
        "meta_epoch": "2025-12-13T04:24:17.454240",
        "meta_mean_motion": 13.91775545,
        "meta_eccentricity": 0.03428827,
        "meta_inclination": 98.2819,
        "meta_ra_of_asc_node": 318.9761,
        "meta_arg_of_pericenter": 273.8166,
        "meta_mean_anomaly": 102.561,
        "meta_ephemeris_type": 0,
        "meta_classification_type": "U",
        "meta_norad_cat_id": 32099,
        "meta_element_set_no": 999,
        "meta_rev_at_epoch": 64694,
        "meta_bstar": 0.0015539286,
        "meta_mean_motion_dot": 3.154e-05,
        "meta_mean_motion_ddot": 0,
        "tle_line1": "1 32099U 99025CQR 25347.18353535  .00003154  00000+0  15539-2 0  9999",
        "tle_line2": "2 32099  98.2819 318.9761 0342882 273.8166 102.5610 13.91775545646948"
      },
      "geometry": {
        "type": "Point",
        "coordinates": [
          -34.277193731584404,
          1.3843919380706502
        ]
      }
    },
    {
      "type": "Feature",
      "properties": {
        "norad_id": 32101,
        "name": "FENGYUN 1C DEB",
        "group": "fengyun-1c-debris",
        "lat": 14.59972568820718,
        "lon": -108.45113467420016,
        "alt_km": 970.1002680046204,
        "timestamp": "2025-12-20T22:39:10.910407+00:00",
        "meta_object_name": "FENGYUN 1C DEB",
        "meta_object_id": "1999-025CQT",
        "meta_epoch": "2025-12-20T00:18:35.789472",
        "meta_mean_motion": 14.01690223,
        "meta_eccentricity": 0.01201229,
        "meta_inclination": 99.0336,
        "meta_ra_of_asc_node": 253.0019,
        "meta_arg_of_pericenter": 218.4634,
        "meta_mean_anomaly": 140.7924,
        "meta_ephemeris_type": 0,
        "meta_classification_type": "U",
        "meta_norad_cat_id": 32101,
        "meta_element_set_no": 999,
        "meta_rev_at_epoch": 93284,
        "meta_bstar": 0.0014180286,
        "meta_mean_motion_dot": 2.246e-05,
        "meta_mean_motion_ddot": 0,
        "tle_line1": "1 32101U 99025CQT 25354.01291423  .00002246  00000+0  14180-2 0  9992",
        "tle_line2": "2 32101  99.0336 253.0019 0120122 218.4634 140.7924 14.01690223932846"
      },
      "geometry": {
        "type": "Point",
        "coordinates": [
          -108.45113467420016,
          14.59972568820718
        ]
      }
    },
    {
      "type": "Feature",
      "properties": {
        "norad_id": 32105,
        "name": "FENGYUN 1C DEB",
        "group": "fengyun-1c-debris",
        "lat": -47.698064354178435,
        "lon": 4.371983598893185,
        "alt_km": 1192.7100081701947,
        "timestamp": "2025-12-20T22:39:10.910417+00:00",
        "meta_object_name": "FENGYUN 1C DEB",
        "meta_object_id": "1999-025CQX",
        "meta_epoch": "2025-12-17T05:19:37.418304",
        "meta_mean_motion": 13.40288111,
        "meta_eccentricity": 0.03945751,
        "meta_inclination": 103.4645,
        "meta_ra_of_asc_node": 344.1703,
        "meta_arg_of_pericenter": 65.7841,
        "meta_mean_anomaly": 298.3981,
        "meta_ephemeris_type": 0,
        "meta_classification_type": "U",
        "meta_norad_cat_id": 32105,
        "meta_element_set_no": 999,
        "meta_rev_at_epoch": 59771,
        "meta_bstar": 0.0022256108,
        "meta_mean_motion_dot": 1.853e-05,
        "meta_mean_motion_ddot": 0,
        "tle_line1": "1 32105U 99025CQX 25351.22196086  .00001853  00000+0  22256-2 0  9991",
        "tle_line2": "2 32105 103.4645 344.1703 0394575  65.7841 298.3981 13.40288111597710"
      },
      "geometry": {
        "type": "Point",
        "coordinates": [
          4.371983598893185,
          -47.698064354178435
        ]
      }
    },
    {
      "type": "Feature",
      "properties": {
        "norad_id": 32106,
        "name": "FENGYUN 1C DEB",
        "group": "fengyun-1c-debris",
        "lat": -70.89252005475271,
        "lon": 4.702466636638558,
        "alt_km": 815.0156814320344,
        "timestamp": "2025-12-20T22:39:10.910425+00:00",
        "meta_object_name": "FENGYUN 1C DEB",
        "meta_object_id": "1999-025CQY",
        "meta_epoch": "2025-12-20T04:29:25.586880",
        "meta_mean_motion": 14.27133511,
        "meta_eccentricity": 0.01104398,
        "meta_inclination": 101.4619,
        "meta_ra_of_asc_node": 327.8635,
        "meta_arg_of_pericenter": 22.7964,
        "meta_mean_anomaly": 337.8056,
        "meta_ephemeris_type": 0,
        "meta_classification_type": "U",
        "meta_norad_cat_id": 32106,
        "meta_element_set_no": 999,
        "meta_rev_at_epoch": 69498,
        "meta_bstar": 0.0025604023,
        "meta_mean_motion_dot": 6.603e-05,
        "meta_mean_motion_ddot": 0,
        "tle_line1": "1 32106U 99025CQY 25354.18710170  .00006603  00000+0  25604-2 0  9994",
        "tle_line2": "2 32106 101.4619 327.8635 0110439  22.7964 337.8056 14.27133511694984"
      },
      "geometry": {
        "type": "Point",
        "coordinates": [
          4.702466636638558,
          -70.89252005475271
        ]
      }
    },
    {
      "type": "Feature",
      "properties": {
        "norad_id": 32109,
        "name": "FENGYUN 1C DEB",
        "group": "fengyun-1c-debris",
        "lat": -78.45624209358613,
        "lon": -79.70435466436834,
        "alt_km": 640.9726168804073,
        "timestamp": "2025-12-20T22:39:10.910434+00:00",
        "meta_object_name": "FENGYUN 1C DEB",
        "meta_object_id": "1999-025CRB",
        "meta_epoch": "2025-12-19T21:54:11.949120",
        "meta_mean_motion": 14.33964952,
        "meta_eccentricity": 0.0205276,
        "meta_inclination": 98.36,
        "meta_ra_of_asc_node": 233.2474,
        "meta_arg_of_pericenter": 290.9149,
        "meta_mean_anomaly": 67.0173,
        "meta_ephemeris_type": 0,
        "meta_classification_type": "U",
        "meta_norad_cat_id": 32109,
        "meta_element_set_no": 999,
        "meta_rev_at_epoch": 64991,
        "meta_bstar": 0.0003723,
        "meta_mean_motion_dot": 1.264e-05,
        "meta_mean_motion_ddot": 0,
        "tle_line1": "1 32109U 99025CRB 25353.91263830  .00001264  00000+0  37230-3 0  9990",
        "tle_line2": "2 32109  98.3600 233.2474 0205276 290.9149  67.0173 14.33964952649913"
      },
      "geometry": {
        "type": "Point",
        "coordinates": [
          -79.70435466436834,
          -78.45624209358613
        ]
      }
    },
    {
      "type": "Feature",
      "properties": {
        "norad_id": 32110,
        "name": "FENGYUN 1C DEB",
        "group": "fengyun-1c-debris",
        "lat": 25.804916022709076,
        "lon": -10.425064554251168,
        "alt_km": 818.0075833865121,
        "timestamp": "2025-12-20T22:39:10.910444+00:00",
        "meta_object_name": "FENGYUN 1C DEB",
        "meta_object_id": "1999-025CRC",
        "meta_epoch": "2025-12-19T23:07:02.652096",
        "meta_mean_motion": 14.28941197,
        "meta_eccentricity": 0.00334801,
        "meta_inclination": 99.5429,
        "meta_ra_of_asc_node": 163.8373,
        "meta_arg_of_pericenter": 345.9783,
        "meta_mean_anomaly": 165.793,
        "meta_ephemeris_type": 0,
        "meta_classification_type": "U",
        "meta_norad_cat_id": 32110,
        "meta_element_set_no": 999,
        "meta_rev_at_epoch": 64491,
        "meta_bstar": 0.00097398852,
        "meta_mean_motion_dot": 2.425e-05,
        "meta_mean_motion_ddot": 0,
        "tle_line1": "1 32110U 99025CRC 25353.96322514  .00002425  00000+0  97399-3 0  9994",
        "tle_line2": "2 32110  99.5429 163.8373 0033480 345.9783 165.7930 14.28941197644916"
      },
      "geometry": {
        "type": "Point",
        "coordinates": [
          -10.425064554251168,
          25.804916022709076
        ]
      }
    },
    {
      "type": "Feature",
      "properties": {
        "norad_id": 32111,
        "name": "FENGYUN 1C DEB",
        "group": "fengyun-1c-debris",
        "lat": -51.02340693507118,
        "lon": 163.87217424733763,
        "alt_km": 738.9297379939599,
        "timestamp": "2025-12-20T22:39:10.910453+00:00",
        "meta_object_name": "FENGYUN 1C DEB",
        "meta_object_id": "1999-025CRD",
        "meta_epoch": "2025-12-17T23:15:28.889568",
        "meta_mean_motion": 14.31552028,
        "meta_eccentricity": 0.01199865,
        "meta_inclination": 98.4433,
        "meta_ra_of_asc_node": 351.5571,
        "meta_arg_of_pericenter": 189.336,
        "meta_mean_anomaly": 199.2635,
        "meta_ephemeris_type": 0,
        "meta_classification_type": "U",
        "meta_norad_cat_id": 32111,
        "meta_element_set_no": 999,
        "meta_rev_at_epoch": 96106,
        "meta_bstar": 0.00016396968,
        "meta_mean_motion_dot": 4.28e-06,
        "meta_mean_motion_ddot": 0,
        "tle_line1": "1 32111U 99025CRD 25351.96908437  .00000428  00000+0  16397-3 0  9997",
        "tle_line2": "2 32111  98.4433 351.5571 0119986 189.3360 199.2635 14.31552028961060"
      },
      "geometry": {
        "type": "Point",
        "coordinates": [
          163.87217424733763,
          -51.02340693507118
        ]
      }
    }
  ]
}